[{"OBJECT_NAME":"IRIDIUM 167","OBJECT_ID":"2019-002K","EPOCH":"2026-03-09T22:39:34.779456","MEAN_MOTION":14.34218835,"ECCENTRICITY":0.00018219,"INCLINATION":86.3972,"RA_OF_ASC_NODE":35.0554,"ARG_OF_PERICENTER":93.0141,"MEAN_ANOMALY":267.1263,"EPHEMERIS_TYPE":0,"CLASSIFICATION_TYPE":"U","NORAD_CAT_ID":43931,"ELEMENT_SET_NO":999,"REV_AT_EPOCH":37473,"BSTAR":-8.039993e-6,"MEAN_MOTION_DOT":-3.0e-8,"MEAN_MOTION_DDOT":0},{"OBJECT_NAME":"THORAD AGENA D DEB","OBJECT_ID":"1970-025KN","EPOCH":"2026-03-09T20:38:54.206304","MEAN_MOTION":14.24000215,"ECCENTRICITY":0.00546707,"INCLINATION":99.8142,"RA_OF_ASC_NODE":299.5084,"ARG_OF_PERICENTER":80.0901,"MEAN_ANOMALY":280.644,"EPHEMERIS_TYPE":0,"CLASSIFICATION_TYPE":"U","NORAD_CAT_ID":5349,"ELEMENT_SET_NO":999,"REV_AT_EPOCH":73577,"BSTAR":0.0024494074,"MEAN_MOTION_DOT":5.663e-5,"MEAN_MOTION_DDOT":0}]
